{
  "type": "FeatureCollection",
  "features": [
    {
      "type": "Feature",
      "properties": {
        "norad_id": 41330,
        "name": "COSMOS 2514 (751)",
        "group": "gnss",
        "lat": -8.634365124557496,
        "lon": 143.5403357242016,
        "alt_km": 19104.590764638953,
        "timestamp": "2025-12-09T11:33:55.041736+00:00",
        "meta_object_name": "COSMOS 2514 (751)",
        "meta_object_id": "2016-008A",
        "meta_epoch": "2025-12-08T07:06:30.420288",
        "meta_mean_motion": 2.13102512,
        "meta_eccentricity": 0.00122682,
        "meta_inclination": 65.1364,
        "meta_ra_of_asc_node": 319.5561,
        "meta_arg_of_pericenter": 220.0272,
        "meta_mean_anomaly": 139.8771,
        "meta_ephemeris_type": 0,
        "meta_classification_type": "U",
        "meta_norad_cat_id": 41330,
        "meta_element_set_no": 999,
        "meta_rev_at_epoch": 7655,
        "meta_bstar": 0,
        "meta_mean_motion_dot": -4.9e-07,
        "meta_mean_motion_ddot": 0,
        "tle_line1": "1 41330U 16008A   25342.29618542 -.00000049  00000+0  00000+0 0  9991",
        "tle_line2": "2 41330  65.1364 319.5561 0012268 220.0272 139.8771  2.13102512 76558"
      },
      "geometry": {
        "type": "Point",
        "coordinates": [
          143.5403357242016,
          -8.634365124557496
        ]
      }
    },
    {
      "type": "Feature",
      "properties": {
        "norad_id": 41384,
        "name": "IRNSS-1F",
        "group": "gnss",
        "lat": -0.27120801693492586,
        "lon": -75.68148685507035,
        "alt_km": 35691.39324093172,
        "timestamp": "2025-12-09T11:33:55.041750+00:00",
        "meta_object_name": "IRNSS-1F",
        "meta_object_id": "2016-015A",
        "meta_epoch": "2025-12-09T01:44:31.732800",
        "meta_mean_motion": 1.00270577,
        "meta_eccentricity": 0.0022492,
        "meta_inclination": 4.8714,
        "meta_ra_of_asc_node": 101.3906,
        "meta_arg_of_pericenter": 180.2244,
        "meta_mean_anomaly": 214.9479,
        "meta_ephemeris_type": 0,
        "meta_classification_type": "U",
        "meta_norad_cat_id": 41384,
        "meta_element_set_no": 999,
        "meta_rev_at_epoch": 3576,
        "meta_bstar": 0,
        "meta_mean_motion_dot": 1.6e-06,
        "meta_mean_motion_ddot": 0,
        "tle_line1": "1 41384U 16015A   25343.07258950  .00000160  00000+0  00000+0 0  9991",
        "tle_line2": "2 41384   4.8714 101.3906 0022492 180.2244 214.9479  1.00270577 35762"
      },
      "geometry": {
        "type": "Point",
        "coordinates": [
          -75.68148685507035,
          -0.27120801693492586
        ]
      }
    },
    {
      "type": "Feature",
      "properties": {
        "norad_id": 41434,
        "name": "BEIDOU-2 IGSO-6 (C13)",
        "group": "gnss",
        "lat": -44.89529464566801,
        "lon": 4.808798705199242,
        "alt_km": 35726.91704119406,
        "timestamp": "2025-12-09T11:33:55.041762+00:00",
        "meta_object_name": "BEIDOU-2 IGSO-6 (C13)",
        "meta_object_id": "2016-021A",
        "meta_epoch": "2025-12-03T15:53:57.382080",
        "meta_mean_motion": 1.00293531,
        "meta_eccentricity": 0.00596341,
        "meta_inclination": 59.9536,
        "meta_ra_of_asc_node": 39.991,
        "meta_arg_of_pericenter": 228.541,
        "meta_mean_anomaly": 135.1173,
        "meta_ephemeris_type": 0,
        "meta_classification_type": "U",
        "meta_norad_cat_id": 41434,
        "meta_element_set_no": 999,
        "meta_rev_at_epoch": 3552,
        "meta_bstar": 0,
        "meta_mean_motion_dot": -1.61e-06,
        "meta_mean_motion_ddot": 0,
        "tle_line1": "1 41434U 16021A   25337.66246970 -.00000161  00000+0  00000+0 0  9993",
        "tle_line2": "2 41434  59.9536  39.9910 0059634 228.5410 135.1173  1.00293531 35525"
      },
      "geometry": {
        "type": "Point",
        "coordinates": [
          4.808798705199242,
          -44.89529464566801
        ]
      }
    },
    {
      "type": "Feature",
      "properties": {
        "norad_id": 41469,
        "name": "IRNSS-1G",
        "group": "gnss",
        "lat": -4.656256871221803,
        "lon": 21.17418675909164,
        "alt_km": 35781.80386985988,
        "timestamp": "2025-12-09T11:33:55.041775+00:00",
        "meta_object_name": "IRNSS-1G",
        "meta_object_id": "2016-027A",
        "meta_epoch": "2025-12-08T23:09:51.521760",
        "meta_mean_motion": 1.00251176,
        "meta_eccentricity": 0.000464,
        "meta_inclination": 4.7237,
        "meta_ra_of_asc_node": 102.1968,
        "meta_arg_of_pericenter": 335.8028,
        "meta_mean_anomaly": 116.7,
        "meta_ephemeris_type": 0,
        "meta_classification_type": "U",
        "meta_norad_cat_id": 41469,
        "meta_element_set_no": 999,
        "meta_rev_at_epoch": 3527,
        "meta_bstar": 0,
        "meta_mean_motion_dot": -3.35e-06,
        "meta_mean_motion_ddot": 0,
        "tle_line1": "1 41469U 16027A   25342.96517965 -.00000335  00000+0  00000+0 0  9994",
        "tle_line2": "2 41469   4.7237 102.1968 0004640 335.8028 116.7000  1.00251176 35274"
      },
      "geometry": {
        "type": "Point",
        "coordinates": [
          21.17418675909164,
          -4.656256871221803
        ]
      }
    },
    {
      "type": "Feature",
      "properties": {
        "norad_id": 41549,
        "name": "GSAT0211 (GALILEO 14)",
        "group": "gnss",
        "lat": 55.0164665758083,
        "lon": -37.1731349110309,
        "alt_km": 23213.627347260004,
        "timestamp": "2025-12-09T11:33:55.041789+00:00",
        "meta_object_name": "GSAT0211 (GALILEO 14)",
        "meta_object_id": "2016-030A",
        "meta_epoch": "2025-12-07T13:40:58.264320",
        "meta_mean_motion": 1.70472997,
        "meta_eccentricity": 0.00040128,
        "meta_inclination": 55.154,
        "meta_ra_of_asc_node": 226.9659,
        "meta_arg_of_pericenter": 14.4678,
        "meta_mean_anomaly": 345.6377,
        "meta_ephemeris_type": 0,
        "meta_classification_type": "U",
        "meta_norad_cat_id": 41549,
        "meta_element_set_no": 999,
        "meta_rev_at_epoch": 5940,
        "meta_bstar": 0,
        "meta_mean_motion_dot": 2.3e-07,
        "meta_mean_motion_ddot": 0,
        "tle_line1": "1 41549U 16030A   25341.57011880  .00000023  00000+0  00000+0 0  9991",
        "tle_line2": "2 41549  55.1540 226.9659 0004012  14.4678 345.6377  1.70472997 59400"
      },
      "geometry": {
        "type": "Point",
        "coordinates": [
          -37.1731349110309,
          55.0164665758083
        ]
      }
    },
    {
      "type": "Feature",
      "properties": {
        "norad_id": 41550,
        "name": "GSAT0210 (GALILEO 13)",
        "group": "gnss",
        "lat": -47.88279478274018,
        "lon": 176.57498392191192,
        "alt_km": 23225.17742362842,
        "timestamp": "2025-12-09T11:33:55.041801+00:00",
        "meta_object_name": "GSAT0210 (GALILEO 13)",
        "meta_object_id": "2016-030B",
        "meta_epoch": "2025-12-07T19:51:37.971648",
        "meta_mean_motion": 1.70473554,
        "meta_eccentricity": 0.00013454,
        "meta_inclination": 55.1532,
        "meta_ra_of_asc_node": 226.9569,
        "meta_arg_of_pericenter": 243.5769,
        "meta_mean_anomaly": 116.5022,
        "meta_ephemeris_type": 0,
        "meta_classification_type": "U",
        "meta_norad_cat_id": 41550,
        "meta_element_set_no": 999,
        "meta_rev_at_epoch": 5940,
        "meta_bstar": 0,
        "meta_mean_motion_dot": 2.1e-07,
        "meta_mean_motion_ddot": 0,
        "tle_line1": "1 41550U 16030B   25341.82752282  .00000021  00000+0  00000+0 0  9997",
        "tle_line2": "2 41550  55.1532 226.9569 0001345 243.5769 116.5022  1.70473554 59407"
      },
      "geometry": {
        "type": "Point",
        "coordinates": [
          176.57498392191192,
          -47.88279478274018
        ]
      }
    },
    {
      "type": "Feature",
      "properties": {
        "norad_id": 41586,
        "name": "BEIDOU-2 G7 (C03)",
        "group": "gnss",
        "lat": -1.5832162103967287,
        "lon": 2.3766561741619197,
        "alt_km": 35780.09649665137,
        "timestamp": "2025-12-09T11:33:55.041812+00:00",
        "meta_object_name": "BEIDOU-2 G7 (C03)",
        "meta_object_id": "2016-037A",
        "meta_epoch": "2025-12-09T02:58:38.764992",
        "meta_mean_motion": 1.00268678,
        "meta_eccentricity": 0.0004345,
        "meta_inclination": 1.748,
        "meta_ra_of_asc_node": 67.6955,
        "meta_arg_of_pericenter": 1.8302,
        "meta_mean_anomaly": 163.7219,
        "meta_ephemeris_type": 0,
        "meta_classification_type": "U",
        "meta_norad_cat_id": 41586,
        "meta_element_set_no": 999,
        "meta_rev_at_epoch": 498,
        "meta_bstar": 0,
        "meta_mean_motion_dot": -3.51e-06,
        "meta_mean_motion_ddot": 0,
        "tle_line1": "1 41586U 16037A   25343.12405978 -.00000351  00000+0  00000+0 0  9992",
        "tle_line2": "2 41586   1.7480  67.6955 0004345   1.8302 163.7219  1.00268678  4982"
      },
      "geometry": {
        "type": "Point",
        "coordinates": [
          2.3766561741619197,
          -1.5832162103967287
        ]
      }
    }
  ]
}